     3.02           N: GNSS NAV DATA    R: GLONASS          RINEX VERSION / TYPE
GR50 V4.11          ICGC                20180114 235942 UTC PGM / RUN BY / DATE
GLUT -4.1909515858D-09 0.000000000D+00      0    0          TIME SYSTEM CORR
    18    18  1929     7                                    LEAP SECONDS
                                                            END OF HEADER
R13 2018 01 15 13 15 00-6.546266376972D-06-0.000000000000D+00 1.332000000000D+05
     1.667361816406D+04-2.504863739014D+00-0.000000000000D+00 0.000000000000D+00
     4.105753417969D+03 6.498174667358D-01-9.313225746155D-10-2.000000000000D+00
     1.884603320313D+04 2.072654724121D+00-2.793967723846D-09 0.000000000000D+00
R04 2018 01 15 13 15 00 2.461047843099D-04 9.094947017729D-13 1.332000000000D+05
     6.012549804688D+03 2.277023315430D+00-0.000000000000D+00 0.000000000000D+00
    -9.385291015625D+03 2.162229537964D+00 9.313225746155D-10 6.000000000000D+00
     2.295260693359D+04 2.863388061523D-01-2.793967723846D-09 0.000000000000D+00
R02 2018 01 15 13 15 00 2.902969717979D-04 9.094947017729D-13 1.332000000000D+05
     1.896397949219D+04 2.596750259399D-01-0.000000000000D+00 0.000000000000D+00
     1.695756982422D+04 2.123355865479D-02-2.793967723846D-09-4.000000000000D+00
     1.512546875000D+03-3.567923545837D+00-9.313225746155D-10 0.000000000000D+00
R14 2018 01 15 13 15 00 2.385862171650D-05 0.000000000000D+00 1.332000000000D+05
     2.460608447266D+04-6.787729263306D-01 2.793967723846D-09 0.000000000000D+00
    -4.727525878906D+03 1.626586914063D-02-1.862645149231D-09-7.000000000000D+00
     4.810222167969D+03 3.497253417969D+00-2.793967723846D-09 0.000000000000D+00
R12 2018 01 15 13 15 00-2.603325992823D-05-0.000000000000D+00 1.332000000000D+05
    -3.127858886719D+03-2.917779922485D+00-3.725290298462D-09 0.000000000000D+00
     1.185368066406D+04 9.400939941406D-01 9.313225746155D-10-1.000000000000D+00
     2.237443359375D+04-8.984556198120D-01-0.000000000000D+00 0.000000000000D+00
R03 2018 01 15 13 15 00 1.214407384396D-04 9.094947017729D-13 1.332000000000D+05
     1.791014355469D+04 1.789856910706D+00-0.000000000000D+00 0.000000000000D+00
     5.532434082031D+03 1.548932075500D+00-9.313225746155D-10 5.000000000000D+00
     1.730994873047D+04-2.354691505432D+00-2.793967723846D-09 0.000000000000D+00
R15 2018 01 15 13 15 00-5.224719643593D-06-9.094947017729D-13 1.335300000000D+05
     2.077038867188D+04 1.277463912964D+00 4.656612873077D-09 0.000000000000D+00
    -1.074845605469D+04-5.588579177856D-01-2.793967723846D-09 0.000000000000D+00
    -1.004766992188D+04 3.245211601257D+00-1.862645149231D-09 0.000000000000D+00
R21 2018 01 15 13 15 00 1.895800232887D-05 1.818989403546D-12 1.345200000000D+05
    -1.164736328125D+04 7.813100814819D-01-3.725290298462D-09 0.000000000000D+00
     4.689954101563D+03-2.940512657166D+00 1.862645149231D-09 4.000000000000D+00
     2.221443164063D+04 1.028442382813D+00-0.000000000000D+00 0.000000000000D+00
R20 2018 01 15 13 45 00-3.234855830669D-04-9.094947017729D-13 1.350000000000D+05
    -5.174773437500D+03 1.295452117920D-01 0.000000000000D+00 0.000000000000D+00
    -1.868931054688D+04-2.274875640869D+00 1.862645149231D-09 2.000000000000D+00
     1.661112890625D+04-2.516416549683D+00-1.862645149231D-09 0.000000000000D+00
R13 2018 01 15 13 45 00-6.547197699547D-06-0.000000000000D+00 1.350000000000D+05
     1.190128417969D+04-2.747497558594D+00-1.862645149231D-09 0.000000000000D+00
     5.753447753906D+03 1.182321548462D+00 0.000000000000D+00-2.000000000000D+00
     2.179895312500D+04 1.187010765076D+00-1.862645149231D-09 0.000000000000D+00
R04 2018 01 15 13 45 00 2.461075782776D-04 9.094947017729D-13 1.350000000000D+05
     1.037100781250D+04 2.524445533752D+00-0.000000000000D+00 0.000000000000D+00
    -5.809457031250D+03 1.780000686646D+00-0.000000000000D+00 6.000000000000D+00
     2.257495214844D+04-7.032814025879D-01-2.793967723846D-09 0.000000000000D+00
R15 2018 01 15 13 45 00-5.226582288742D-06-9.094947017729D-13 1.350000000000D+05
     2.229124023438D+04 4.106750488281D-01 3.725290298462D-09 0.000000000000D+00
    -1.165001367188D+04-3.996849060059D-01-2.793967723846D-09 0.000000000000D+00
    -3.891251953125D+03 3.550551414490D+00-2.793967723846D-09 0.000000000000D+00
R21 2018 01 15 13 45 00 1.896079629660D-05 1.818989403546D-12 1.350000000000D+05
    -1.061872998047D+04 3.464031219482D-01-2.793967723846D-09 0.000000000000D+00
    -8.422646484375D+02-3.156261444092D+00 2.793967723846D-09 4.000000000000D+00
     2.318395263672D+04 4.175567626953D-02-0.000000000000D+00 0.000000000000D+00
R02 2018 01 15 13 45 00 2.902997657657D-04 9.094947017729D-13 1.350000000000D+05
     1.881104638672D+04-4.527883529663D-01-0.000000000000D+00 0.000000000000D+00
     1.647437500000D+04-5.242147445679D-01-2.793967723846D-09-4.000000000000D+00
    -4.885123535156D+03-3.494276046753D+00-0.000000000000D+00 0.000000000000D+00
R14 2018 01 15 13 45 00 2.385955303907D-05 0.000000000000D+00 1.350000000000D+05
     2.268993066406D+04-1.420408248901D+00 9.313225746155D-10 0.000000000000D+00
    -4.334941406250D+03 4.502725601196D-01-1.862645149231D-09-7.000000000000D+00
     1.083815332031D+04 3.157009124756D+00-2.793967723846D-09 0.000000000000D+00
R12 2018 01 15 13 45 00-2.603419125080D-05-0.000000000000D+00 1.350000000000D+05
    -7.986412109375D+03-2.441170692444D+00-3.725290298462D-09 0.000000000000D+00
     1.382535009766D+04 1.218785285950D+00 1.862645149231D-09-1.000000000000D+00
     1.991413720703D+04-1.817285537720D+00 0.000000000000D+00 0.000000000000D+00
R03 2018 01 15 13 45 00 1.214426010847D-04 9.094947017729D-13 1.350000000000D+05
     2.087226074219D+04 1.455668449402D+00-0.000000000000D+00 0.000000000000D+00
     7.725918945313D+03 8.905553817749D-01-1.862645149231D-09 5.000000000000D+00
     1.245735888672D+04-3.002205848694D+00-1.862645149231D-09 0.000000000000D+00
R05 2018 01 15 13 45 00-2.303561195731D-04-6.366462912410D-12 1.354500000000D+05
    -5.529131835938D+03 2.151187896729D+00-0.000000000000D+00 0.000000000000D+00
    -1.542884179688D+04 1.594369888306D+00 1.862645149231D-09 1.000000000000D+00
     1.952845312500D+04 1.867903709412D+00-1.862645149231D-09 0.000000000000D+00
R05 2018 01 15 14 15 00-2.303682267666D-04-6.366462912410D-12 1.368000000000D+05
    -1.162644042969D+03 2.668680191040D+00-0.000000000000D+00 0.000000000000D+00
    -1.267207568359D+04 1.430462837219D+00 9.313225746155D-10 1.000000000000D+00
     2.209112109375D+04 9.609909057617D-01-1.862645149231D-09 0.000000000000D+00
R13 2018 01 15 14 15 00-6.549991667271D-06-0.000000000000D+00 1.368000000000D+05
     6.964262695313D+03-2.688993453979D+00-2.793967723846D-09 0.000000000000D+00
     8.333501953125D+03 1.667304992676D+00 9.313225746155D-10-2.000000000000D+00
     2.306392480469D+04 2.093639373779D-01-9.313225746155D-10 0.000000000000D+00
R04 2018 01 15 14 15 00 2.461094409227D-04 9.094947017729D-13 1.368000000000D+05
     1.493646923828D+04 2.499816894531D+00-0.000000000000D+00 0.000000000000D+00
    -3.059956054688D+03 1.260651588440D+00-0.000000000000D+00 6.000000000000D+00
     2.045327929688D+04-1.638895988464D+00-2.793967723846D-09 0.000000000000D+00
R15 2018 01 15 14 15 00-5.228444933891D-06-9.094947017729D-13 1.368000000000D+05
     2.227869921875D+04-4.066848754883D-01 1.862645149231D-09 0.000000000000D+00
    -1.203830126953D+04 6.314277648926D-03-2.793967723846D-09 0.000000000000D+00
     2.568061523438D+03 3.579540252686D+00-2.793967723846D-09 0.000000000000D+00
R21 2018 01 15 14 15 00 1.896359026432D-05 1.818989403546D-12 1.368000000000D+05
    -1.042245800781D+04-1.252164840698D-01-9.313225746155D-10 0.000000000000D+00
    -6.485144531250D+03-3.061201095581D+00 2.793967723846D-09 4.000000000000D+00
     2.236255810547D+04-9.485721588135D-01-9.313225746155D-10 0.000000000000D+00
R14 2018 01 15 14 15 00 2.386048436165D-05 0.000000000000D+00 1.368000000000D+05
     1.962498632813D+04-1.942653656006D+00-0.000000000000D+00 0.000000000000D+00
    -3.022267578125D+03 1.023797988892D+00-9.313225746155D-10-7.000000000000D+00
     1.602885400391D+04 2.573060035706D+00-2.793967723846D-09 0.000000000000D+00
R02 2018 01 15 14 15 00 2.903025597334D-04 9.094947017729D-13 1.368000000000D+05
     1.728169238281D+04-1.251718521118D+00-0.000000000000D+00 0.000000000000D+00
     1.520985107422D+04-8.386554718018D-01-2.793967723846D-09-4.000000000000D+00
    -1.090364550781D+04-3.149346351624D+00 0.000000000000D+00 0.000000000000D+00
R03 2018 01 15 14 15 00 1.214435324073D-04 0.000000000000D+00 1.368000000000D+05
     2.299709082031D+04 8.671665191650D-01-9.313225746155D-10 0.000000000000D+00
     8.779192382813D+03 2.995786666870D-01-1.862645149231D-09 5.000000000000D+00
     6.641306152344D+03-3.418152809143D+00-9.313225746155D-10 0.000000000000D+00
R22 2018 01 15 14 15 00-1.048017293215D-05-2.728484105319D-12 1.374300000000D+05
    -8.735695312500D+03 5.588912963867D-02-3.725290298462D-09 0.000000000000D+00
     1.348158886719D+04-2.715114593506D+00 2.793967723846D-09-3.000000000000D+00
     1.977732031250D+04 1.887885093689D+00 0.000000000000D+00 0.000000000000D+00
R05 2018 01 15 14 45 00-2.303803339601D-04-6.366462912410D-12 1.386000000000D+05
     3.938925781250D+03 2.955334663391D+00-0.000000000000D+00 0.000000000000D+00
    -1.039564941406D+04 1.073490142822D+00 0.000000000000D+00 1.000000000000D+00
     2.294329003906D+04-2.027797698975D-02-2.793967723846D-09 0.000000000000D+00
R13 2018 01 15 14 45 00-6.550922989845D-06-0.000000000000D+00 1.386000000000D+05
     2.384491699219D+03-2.359254837036D+00-2.793967723846D-09 0.000000000000D+00
     1.166376562500D+04 1.999760627747D+00 1.862645149231D-09-2.000000000000D+00
     2.254290185547D+04-7.845087051392D-01-0.000000000000D+00 0.000000000000D+00
